ORBCOMM-X               
1 21576U 91050C   25316.17843239  .00000565  00000+0  18005-3 0  9992
2 21576  98.3269  19.6418 0004826  98.2884 261.8854 14.43395743803466
ORBCOMM FM01            
1 23545U 95017A   25316.59942752  .00019845  00000+0  19379-2 0  9998
2 23545  69.9631  63.5164 0000719  21.8218 338.2968 14.92399358634633
ORBCOMM FM02            
1 23546U 95017B   25316.30218599  .00031121  00000+0  29250-2 0  9993
2 23546  69.9633  83.0583 0001928  75.1248 285.0122 14.93787539634258
ORBCOMM FM08            
1 25112U 97084A   25316.57766718  .00004619  00000+0  13115-2 0  9995
2 25112  45.0145  15.2413 0008223 272.5900  87.4010 14.46420794462854
ORBCOMM FM10            
1 25113U 97084B   25316.58149610  .00003875  00000+0  11125-2 0  9995
2 25113  45.0158  17.8727 0006889 246.2393 113.7736 14.46182521637995
ORBCOMM FM11            
1 25114U 97084C   25316.61214606  .00004120  00000+0  11866-2 0  9994
2 25114  45.0140  18.6325 0007713 247.4408 112.5627 14.45923406462959
ORBCOMM FM12            
1 25115U 97084D   25316.84894781  .00004455  00000+0  12792-2 0  9998
2 25115  45.0149  17.2311 0006792 246.2620 113.7519 14.45948583462785
ORBCOMM FM09            
1 25116U 97084E   25316.54943530  .00003730  00000+0  10808-2 0  9994
2 25116  45.0152  19.7591 0007884 236.2756 123.7345 14.45796975462941
